CS1                     
1 49261U 21088B   26068.75173904  .00015722  00000+0  51176-3 0  9998
2 49261  97.3882 132.1684 0014129  78.0335 282.2490 15.31848439245182
STARLINK-35503          
1 66245U 25245M   26068.82785589  .00028955  00000+0  98558-3 0  9991
2 66245  53.1577 283.5394 0001144 108.4847 251.6278 15.30211126 21229
